BEIDOU-2 IGSO-1 (C06)   
1 36828U 10036A   23080.81134987 -.00000151  00000+0  00000+0 0  9997
2 36828  54.2094 173.6952 0035429 188.3522 217.6191  1.00271094 46368
BEIDOU-2 G4 (C04)       
1 37210U 10057A   23080.93358128 -.00000129  00000+0  00000+0 0  9999
2 37210   0.8444  48.2022 0001219 204.9439  62.0759  1.00269847 45417
BEIDOU-2 IGSO-2 (C07)   
1 37256U 10068A   23080.85126796 -.00000189  00000+0  00000+0 0  9992
2 37256  49.7111 286.3130 0023387 202.2627 105.6153  1.00280187 44922
BEIDOU-2 IGSO-3 (C08)   
1 37384U 11013A   23078.29809368 -.00000163  00000+0  00000+0 0  9995
2 37384  60.6956  51.5440 0023513 188.6994 150.8392  1.00281908 43775
BEIDOU-2 IGSO-4 (C09)   
1 37763U 11038A   23080.59972361 -.00000104  00000+0  00000+0 0  9998
2 37763  54.4872 176.2140 0106674 228.2470  85.2550  1.00265961 42773
BEIDOU-2 IGSO-5 (C10)   
1 37948U 11073A   23080.85096670 -.00000142  00000+0  00000+0 0  9993
2 37948  49.8318 285.9684 0085249 219.4485  76.2610  1.00270883 41533
BEIDOU-2 G5 (C05)       
1 38091U 12008A   23080.91344620  .00000043  00000+0  00000+0 0  9999
2 38091   1.3320  63.6782 0025227 318.5801 184.3382  1.00270343 40618
BEIDOU-2 M3 (C11)       
1 38250U 12018A   23080.48369029 -.00000094  00000+0  00000+0 0  9996
2 38250  56.5937 344.3996 0022366 263.3505 283.3203  1.86231357 74240
BEIDOU-2 M4 (C12)       
1 38251U 12018B   23079.91425716 -.00000091  00000+0  00000+0 0  9996
2 38251  56.5071 343.7246 0013602 270.1133 299.5542  1.86234402 74235
BEIDOU-2 M6 (C14)       
1 38775U 12050B   23080.53962311  .00000035  00000+0  00000+0 0  9997
2 38775  55.5742 102.3646 0014250 321.7691 142.1788  1.86231341 71629
BEIDOU-2 G6 (C02)       
1 38953U 12059A   23080.70343098 -.00000191  00000+0  00000+0 0  9992
2 38953   1.6137  82.4106 0011287 303.0027 130.8280  1.00271088 38047
BEIDOU-3S IGSO-1S (C31) 
1 40549U 15019A   23080.61281869 -.00000156  00000+0  00000+0 0  9993
2 40549  51.3972 309.5212 0036099 192.6433 351.4028  1.00294099 29219
BEIDOU-3S M2S (C57)     
1 40748U 15037A   23080.52627461 -.00000094  00000+0  00000+0 0  9997
2 40748  55.7537 342.4015 0005364  11.2658 157.7747  1.86233412 52079
BEIDOU-3S M1S (C58)     
1 40749U 15037B   23079.84654883 -.00000091  00000+0  00000+0 0  9996
2 40749  55.7554 342.4126 0006591 338.9989 228.2942  1.86233142 52050
BEIDOU-3S IGSO-2S (C56) 
1 40938U 15053A   23080.41108125 -.00000125  00000+0  00000+0 0  9990
2 40938  51.0684 272.6722 0044534 192.1484 318.3486  1.00275349 27482
BEIDOU-2 IGSO-6 (C13)   
1 41434U 16021A   23080.27380263 -.00000153  00000+0  00000+0 0  9998
2 41434  58.5086  49.9749 0048505 226.1417  97.1627  1.00271947 25603
BEIDOU-2 G7 (C03)       
1 41586U 16037A   23080.85208220 -.00000369  00000+0  00000+0 0  9998
2 41586   1.4924  64.7781 0010089 346.6429 184.8790  1.00266125 24928
BEIDOU-3 M1 (C19)       
1 43001U 17069A   23080.27075416  .00000038  00000+0  00000+0 0  9995
2 43001  55.7257 102.4095 0012037 290.5203 149.6470  1.86231638 36554
BEIDOU-3 M2 (C20)       
1 43002U 17069B   23080.62759760  .00000034  00000+0  00000+0 0  9992
2 43002  55.7258 102.4337 0009585 308.6445  53.4761  1.86231363 36558
BEIDOU-3 M7 (C27)       
1 43107U 18003A   23080.78045449 -.00000097  00000+0  00000+0 0  9996
2 43107  55.2057 343.1869 0005133  47.0727 224.1429  1.86232477 35310
BEIDOU-3 M8 (C28)       
1 43108U 18003B   23080.71607145 -.00000096  00000+0  00000+0 0  9996
2 43108  55.1983 343.1762 0003243 279.9517 350.4402  1.86230964 35316
BEIDOU-3 M4 (C22)       
1 43207U 18018A   23080.75600004  .00000033  00000+0  00000+0 0  9993
2 43207  55.6862 102.4984 0006251 324.4198  35.6001  1.86231556 34709
BEIDOU-3 M3 (C21)       
1 43208U 18018B   23080.28563754  .00000038  00000+0  00000+0 0  9997
2 43208  55.6856 102.5192 0009574 298.2331  61.7343  1.86231640 34694
BEIDOU-3 M9 (C29)       
1 43245U 18029A   23080.25049628 -.00000092  00000+0  00000+0 0  9997
2 43245  55.1077 340.9531 0001500 350.2597 196.2945  1.86232661 33846
BEIDOU-3 M10 (C30)      
1 43246U 18029B   23080.84857965 -.00000094  00000+0  10000-3 0  9991
2 43246  55.1037 340.9617 0005303   0.9331 273.3605  1.86232795 33846
BEIDOU-2 IGSO-7 (C16)   
1 43539U 18057A   23080.81398258 -.00000154  00000+0  00000+0 0  9991
2 43539  55.1018 173.2941 0058115 228.9450 182.1169  1.00281835 17298
BEIDOU-3 M5 (C23)       
1 43581U 18062A   23080.66749575 -.00000012  00000+0  00000+0 0  9992
2 43581  54.2089 222.6013 0001552 310.9184  53.7620  1.86231915 31593
BEIDOU-3 M6 (C24)       
1 43582U 18062B   23080.53594418 -.00000012  00000+0  00000+0 0  9993
2 43582  54.2085 222.5950 0006231  33.0054 334.8361  1.86229549 31592
BEIDOU-3 M12 (C26)      
1 43602U 18067A   23080.46900369 -.00000013  00000+0  00000+0 0  9990
2 43602  54.2944 221.2375 0007691  23.9602 340.4857  1.86231695 31086
BEIDOU-3 M11 (C25)      
1 43603U 18067B   23080.60053334 -.00000012  00000+0  00000+0 0  9997
2 43603  54.2914 221.1990 0004520  20.1669 342.7773  1.86231593 31108
BEIDOU-3 M13 (C32)      
1 43622U 18072A   23078.41206530  .00000048  00000+0  00000+0 0  9996
2 43622  55.6510 102.1219 0008452 286.1484  77.8476  1.86231449 30571
BEIDOU-3 M14 (C33)      
1 43623U 18072B   23080.60497477  .00000034  00000+0  00000+0 0  9998
2 43623  55.6559 102.0415 0006225 303.2668 181.2084  1.86231527 30610
BEIDOU-3 M16 (C35)      
1 43647U 18078A   23080.24822899 -.00000092  00000+0  10000-3 0  9990
2 43647  55.0044 341.0891 0008701   7.4540 131.7686  1.86226871 30114
BEIDOU-3 M15 (C34)      
1 43648U 18078B   23080.58158983 -.00000094  00000+0  00000+0 0  9991
2 43648  54.9991 341.0823 0005574  15.0595 257.1201  1.86232227 30139
BEIDOU-3 G1 (C59)       
1 43683U 18085A   23080.86324616 -.00000294  00000+0  00000+0 0  9999
2 43683   1.1771 138.2918 0001867  28.0466 103.5806  1.00272061 16192
BEIDOU-3 M17 (C36)      
1 43706U 18093A   23080.86183853 -.00000010  00000+0  00000+0 0  9996
2 43706  54.2911 222.5000 0007198 281.1292  78.7304  1.86231821 29502
BEIDOU-3 M18 (C37)      
1 43707U 18093B   23080.19972275 -.00000013  00000+0  00000+0 0  9990
2 43707  54.2919 222.5137 0006047 321.8661  45.3171  1.86229708 29486
BEIDOU-3 IGSO-1 (C38)   
1 44204U 19023A   23080.82063381 -.00000212  00000+0  00000+0 0  9997
2 44204  56.9724  50.0038 0020241 209.1398 334.9842  1.00279263 14497
BEIDOU-2 G8 (C01)       
1 44231U 19027A   23080.93053052 -.00000262  00000+0  00000+0 0  9992
2 44231   1.5397  80.9457 0004439 139.1017  78.6537  1.00271861 14205
BEIDOU-3 IGSO-2 (C39)   
1 44337U 19035A   23080.63884186 -.00000155  00000+0  00000+0 0  9996
2 44337  55.1418 169.2605 0030167 196.5770 162.6814  1.00272900 13821
BEIDOU-3 M24 (C46)      
1 44542U 19061A   23080.26179049 -.00000013  00000+0  00000+0 0  9990
2 44542  54.5184 222.7173 0007664 359.2332   0.7055  1.86231087 23741
BEIDOU-3 M23 (C45)      
1 44543U 19061B   23079.78973749 -.00000014  00000+0  00000+0 0  9996
2 44543  54.5167 222.7021 0004857 359.8908 315.2195  1.86231661 23726
BEIDOU-3 IGSO-3 (C40)   
1 44709U 19073A   23080.49507641 -.00000159  00000+0  00000+0 0  9997
2 44709  56.8094 293.4989 0029028 178.1307   4.7660  1.00278429 12571
BEIDOU-3 M22 (C44)      
1 44793U 19078A   23080.37039851 -.00000093  00000+0  10000-3 0  9997
2 44793  54.8523 341.0728 0007518  12.6098 164.1665  1.86232166 22602
BEIDOU-3 M21 (C43)      
1 44794U 19078B   23079.43441574 -.00000089  00000+0  00000+0 0  9992
2 44794  54.8265 341.0906 0005313   4.0517 177.3549  1.86232686 22587
BEIDOU-3 M19 (C41)      
1 44864U 19090A   23080.60779306  .00000034  00000+0  00000+0 0  9991
2 44864  55.5884 102.2448 0019281 273.4645 168.7661  1.86231866 22196
BEIDOU-3 M20 (C42)      
1 44865U 19090B   23080.56797712  .00000034  00000+0  00000+0 0  9998
2 44865  55.5906 102.2782 0017248 285.1502 220.2107  1.86231862 22168
BEIDOU-3 G2 (C60)       
1 45344U 20017A   23080.74910400 -.00000156  00000+0  00000+0 0  9999
2 45344   1.9922   7.1177 0001578  43.6886 117.8816  1.00270746 11397
BEIDOU-3 G3 (C61)       
1 45807U 20040A   23080.85208220 -.00000371  00000+0  00000+0 0  9990
2 45807   0.8553 318.7505 0006065 338.7803 298.8226  1.00267770 10205
